STARLINK-34192          
1 64014U 25101W   25297.70354293  .00035260  00000+0  12842-2 0  9996
2 64014  43.0062  46.3052 0001800 289.6783  70.3874 15.27593232 26257
STARLINK-34093          
1 64015U 25101X   25297.72653683  .00056161  00000+0  20354-2 0  9994
2 64015  43.0051  45.6139 0001118 301.2868  58.7874 15.27572716 26266
STARLINK-34016          
1 64016U 25101Y   25297.72138676  .00024267  00000+0  88832-3 0  9993
2 64016  43.0011  45.5744 0001199 271.4398  88.6316 15.27585125 26260
STARLINK-34161          
1 64017U 25101Z   25297.73037455  .00040841  00000+0  14850-2 0  9992
2 64017  43.0007  45.6426 0001112 245.5137 114.5599 15.27589608 26264
STARLINK-34162          
1 64018U 25101AA  25297.74322859  .00045178  00000+0  16408-2 0  9998
2 64018  43.0032  45.7418 0001300 288.9889  71.0822 15.27589511 26268
STARLINK-34155          
1 64019U 25101AB  25297.75093419  .00048934  00000+0  17740-2 0  9990
2 64019  43.0019  45.7987 0001018 282.3202  77.7535 15.27617300 26260
STARLINK-34141          
1 64020U 25101AC  25297.74707986  .00023467  00000+0  85951-3 0  9996
2 64020  43.0013  45.7697 0001014 257.2839 102.7900 15.27583327 26263
STARLINK-34062          
1 64021U 25101AD  25297.65985108  .00046417  00000+0  16825-2 0  9994
2 64021  43.0003  45.9694 0001314 266.7039  93.3662 15.27643078 26251
STARLINK-34051          
1 64022U 25102A   25297.77622124  .00001300  00000+0  11675-3 0  9996
2 64022  70.0010  97.1470 0003275 272.2398  87.8386 14.98330945 25599
STARLINK-34184          
1 64023U 25102B   25297.79275216  .00004558  00000+0  38948-3 0  9995
2 64023  70.0015  97.2028 0003061 270.7308  89.3500 14.98338177 25604
STARLINK-34087          
1 64024U 25102C   25297.75937975  .00006480  00000+0  55023-3 0  9998
2 64024  70.0013  97.0852 0003198 269.8714  90.2078 14.98337563 25482
STARLINK-34088          
1 64025U 25102D   25297.80126587  .00002796  00000+0  24203-3 0  9996
2 64025  70.0018  97.2267 0003053 270.8181  89.2628 14.98334380 25607
STARLINK-33992          
1 64026U 25102E   25297.74270181  .00006935  00000+0  58813-3 0  9993
2 64026  70.0015  97.4303 0002696 256.2718 103.8141 14.98350413 25679
STARLINK-33967          
1 64027U 25102F   25297.77605549  .00006002  00000+0  51030-3 0  9996
2 64027  70.0010  97.1425 0003228 270.6505  89.4284 14.98337884 25532
STARLINK-33953          
1 64028U 25102G   25297.74683491  .00005670  00000+0  48242-3 0  9997
2 64028  70.0013  97.0391 0002910 263.3344  96.7484 14.98345602 25691
STARLINK-33790          
1 64029U 25102H   25297.78873851  .00010074  00000+0  85099-3 0  9998
2 64029  70.0030  97.1836 0002846 261.8331  98.2505 14.98324045 25647
STARLINK-34030          
1 64030U 25102J   25297.80110000  .00003385  00000+0  29131-3 0  9995
2 64030  70.0015  97.2309 0003115 270.3989  89.6814 14.98335948 25609
