[{"OBJECT_NAME":"STARLINK-34192","OBJECT_ID":"2025-101W","EPOCH":"2025-10-24T16:53:06.109152","MEAN_MOTION":15.27593232,"ECCENTRICITY":0.00018,"INCLINATION":43.0062,"RA_OF_ASC_NODE":46.3052,"ARG_OF_PERICENTER":289.6783,"MEAN_ANOMALY":70.3874,"EPHEMERIS_TYPE":0,"CLASSIFICATION_TYPE":"U","NORAD_CAT_ID":64014,"ELEMENT_SET_NO":999,"REV_AT_EPOCH":2625,"BSTAR":0.0012842,"MEAN_MOTION_DOT":0.0003526,"MEAN_MOTION_DDOT":0},{"OBJECT_NAME":"STARLINK-34093","OBJECT_ID":"2025-101X","EPOCH":"2025-10-24T17:26:12.782112","MEAN_MOTION":15.27572716,"ECCENTRICITY":0.0001118,"INCLINATION":43.0051,"RA_OF_ASC_NODE":45.6139,"ARG_OF_PERICENTER":301.2868,"MEAN_ANOMALY":58.7874,"EPHEMERIS_TYPE":0,"CLASSIFICATION_TYPE":"U","NORAD_CAT_ID":64015,"ELEMENT_SET_NO":999,"REV_AT_EPOCH":2626,"BSTAR":0.0020354,"MEAN_MOTION_DOT":0.00056161,"MEAN_MOTION_DDOT":0},{"OBJECT_NAME":"STARLINK-34016","OBJECT_ID":"2025-101Y","EPOCH":"2025-10-24T17:18:47.816064","MEAN_MOTION":15.27585125,"ECCENTRICITY":0.0001199,"INCLINATION":43.0011,"RA_OF_ASC_NODE":45.5744,"ARG_OF_PERICENTER":271.4398,"MEAN_ANOMALY":88.6316,"EPHEMERIS_TYPE":0,"CLASSIFICATION_TYPE":"U","NORAD_CAT_ID":64016,"ELEMENT_SET_NO":999,"REV_AT_EPOCH":2626,"BSTAR":0.00088832,"MEAN_MOTION_DOT":0.00024267,"MEAN_MOTION_DDOT":0},{"OBJECT_NAME":"STARLINK-34161","OBJECT_ID":"2025-101Z","EPOCH":"2025-10-24T17:31:44.361120","MEAN_MOTION":15.27589608,"ECCENTRICITY":0.0001112,"INCLINATION":43.0007,"RA_OF_ASC_NODE":45.6426,"ARG_OF_PERICENTER":245.5137,"MEAN_ANOMALY":114.5599,"EPHEMERIS_TYPE":0,"CLASSIFICATION_TYPE":"U","NORAD_CAT_ID":64017,"ELEMENT_SET_NO":999,"REV_AT_EPOCH":2626,"BSTAR":0.001485,"MEAN_MOTION_DOT":0.00040841,"MEAN_MOTION_DDOT":0},{"OBJECT_NAME":"STARLINK-34162","OBJECT_ID":"2025-101AA","EPOCH":"2025-10-24T17:50:14.950176","MEAN_MOTION":15.27589511,"ECCENTRICITY":0.00013,"INCLINATION":43.0032,"RA_OF_ASC_NODE":45.7418,"ARG_OF_PERICENTER":288.9889,"MEAN_ANOMALY":71.0822,"EPHEMERIS_TYPE":0,"CLASSIFICATION_TYPE":"U","NORAD_CAT_ID":64018,"ELEMENT_SET_NO":999,"REV_AT_EPOCH":2626,"BSTAR":0.0016408,"MEAN_MOTION_DOT":0.00045178,"MEAN_MOTION_DDOT":0},{"OBJECT_NAME":"STARLINK-34155","OBJECT_ID":"2025-101AB","EPOCH":"2025-10-24T18:01:20.714016","MEAN_MOTION":15.276173,"ECCENTRICITY":0.0001018,"INCLINATION":43.0019,"RA_OF_ASC_NODE":45.7987,"ARG_OF_PERICENTER":282.3202,"MEAN_ANOMALY":77.7535,"EPHEMERIS_TYPE":0,"CLASSIFICATION_TYPE":"U","NORAD_CAT_ID":64019,"ELEMENT_SET_NO":999,"REV_AT_EPOCH":2626,"BSTAR":0.001774,"MEAN_MOTION_DOT":0.00048934,"MEAN_MOTION_DDOT":0},{"OBJECT_NAME":"STARLINK-34141","OBJECT_ID":"2025-101AC","EPOCH":"2025-10-24T17:55:47.699904","MEAN_MOTION":15.27583327,"ECCENTRICITY":0.0001014,"INCLINATION":43.0013,"RA_OF_ASC_NODE":45.7697,"ARG_OF_PERICENTER":257.2839,"MEAN_ANOMALY":102.79,"EPHEMERIS_TYPE":0,"CLASSIFICATION_TYPE":"U","NORAD_CAT_ID":64020,"ELEMENT_SET_NO":999,"REV_AT_EPOCH":2626,"BSTAR":0.00085951,"MEAN_MOTION_DOT":0.00023467,"MEAN_MOTION_DDOT":0},{"OBJECT_NAME":"STARLINK-34062","OBJECT_ID":"2025-101AD","EPOCH":"2025-10-24T15:50:11.133312","MEAN_MOTION":15.27643078,"ECCENTRICITY":0.0001314,"INCLINATION":43.0003,"RA_OF_ASC_NODE":45.9694,"ARG_OF_PERICENTER":266.7039,"MEAN_ANOMALY":93.3662,"EPHEMERIS_TYPE":0,"CLASSIFICATION_TYPE":"U","NORAD_CAT_ID":64021,"ELEMENT_SET_NO":999,"REV_AT_EPOCH":2625,"BSTAR":0.0016825,"MEAN_MOTION_DOT":0.00046417,"MEAN_MOTION_DDOT":0},{"OBJECT_NAME":"STARLINK-34051","OBJECT_ID":"2025-102A","EPOCH":"2025-10-24T18:37:45.515136","MEAN_MOTION":14.98330945,"ECCENTRICITY":0.0003275,"INCLINATION":70.001,"RA_OF_ASC_NODE":97.147,"ARG_OF_PERICENTER":272.2398,"MEAN_ANOMALY":87.8386,"EPHEMERIS_TYPE":0,"CLASSIFICATION_TYPE":"U","NORAD_CAT_ID":64022,"ELEMENT_SET_NO":999,"REV_AT_EPOCH":2559,"BSTAR":0.00011675,"MEAN_MOTION_DOT":1.3e-5,"MEAN_MOTION_DDOT":0},{"OBJECT_NAME":"STARLINK-34184","OBJECT_ID":"2025-102B","EPOCH":"2025-10-24T19:01:33.786624","MEAN_MOTION":14.98338177,"ECCENTRICITY":0.0003061,"INCLINATION":70.0015,"RA_OF_ASC_NODE":97.2028,"ARG_OF_PERICENTER":270.7308,"MEAN_ANOMALY":89.35,"EPHEMERIS_TYPE":0,"CLASSIFICATION_TYPE":"U","NORAD_CAT_ID":64023,"ELEMENT_SET_NO":999,"REV_AT_EPOCH":2560,"BSTAR":0.00038948,"MEAN_MOTION_DOT":4.558e-5,"MEAN_MOTION_DDOT":0},{"OBJECT_NAME":"STARLINK-34087","OBJECT_ID":"2025-102C","EPOCH":"2025-10-24T18:13:30.410400","MEAN_MOTION":14.98337563,"ECCENTRICITY":0.0003198,"INCLINATION":70.0013,"RA_OF_ASC_NODE":97.0852,"ARG_OF_PERICENTER":269.8714,"MEAN_ANOMALY":90.2078,"EPHEMERIS_TYPE":0,"CLASSIFICATION_TYPE":"U","NORAD_CAT_ID":64024,"ELEMENT_SET_NO":999,"REV_AT_EPOCH":2548,"BSTAR":0.00055023,"MEAN_MOTION_DOT":6.48e-5,"MEAN_MOTION_DDOT":0},{"OBJECT_NAME":"STARLINK-34088","OBJECT_ID":"2025-102D","EPOCH":"2025-10-24T19:13:49.371168","MEAN_MOTION":14.9833438,"ECCENTRICITY":0.0003053,"INCLINATION":70.0018,"RA_OF_ASC_NODE":97.2267,"ARG_OF_PERICENTER":270.8181,"MEAN_ANOMALY":89.2628,"EPHEMERIS_TYPE":0,"CLASSIFICATION_TYPE":"U","NORAD_CAT_ID":64025,"ELEMENT_SET_NO":999,"REV_AT_EPOCH":2560,"BSTAR":0.00024203,"MEAN_MOTION_DOT":2.796e-5,"MEAN_MOTION_DDOT":0},{"OBJECT_NAME":"STARLINK-33992","OBJECT_ID":"2025-102E","EPOCH":"2025-10-24T17:49:29.436384","MEAN_MOTION":14.98350413,"ECCENTRICITY":0.0002696,"INCLINATION":70.0015,"RA_OF_ASC_NODE":97.4303,"ARG_OF_PERICENTER":256.2718,"MEAN_ANOMALY":103.8141,"EPHEMERIS_TYPE":0,"CLASSIFICATION_TYPE":"U","NORAD_CAT_ID":64026,"ELEMENT_SET_NO":999,"REV_AT_EPOCH":2567,"BSTAR":0.00058813,"MEAN_MOTION_DOT":6.935e-5,"MEAN_MOTION_DDOT":0},{"OBJECT_NAME":"STARLINK-33967","OBJECT_ID":"2025-102F","EPOCH":"2025-10-24T18:37:31.194336","MEAN_MOTION":14.98337884,"ECCENTRICITY":0.0003228,"INCLINATION":70.001,"RA_OF_ASC_NODE":97.1425,"ARG_OF_PERICENTER":270.6505,"MEAN_ANOMALY":89.4284,"EPHEMERIS_TYPE":0,"CLASSIFICATION_TYPE":"U","NORAD_CAT_ID":64027,"ELEMENT_SET_NO":999,"REV_AT_EPOCH":2553,"BSTAR":0.0005103,"MEAN_MOTION_DOT":6.002e-5,"MEAN_MOTION_DDOT":0},{"OBJECT_NAME":"STARLINK-33953","OBJECT_ID":"2025-102G","EPOCH":"2025-10-24T17:55:26.536224","MEAN_MOTION":14.98345602,"ECCENTRICITY":0.000291,"INCLINATION":70.0013,"RA_OF_ASC_NODE":97.0391,"ARG_OF_PERICENTER":263.3344,"MEAN_ANOMALY":96.7484,"EPHEMERIS_TYPE":0,"CLASSIFICATION_TYPE":"U","NORAD_CAT_ID":64028,"ELEMENT_SET_NO":999,"REV_AT_EPOCH":2569,"BSTAR":0.00048242,"MEAN_MOTION_DOT":5.67e-5,"MEAN_MOTION_DDOT":0},{"OBJECT_NAME":"STARLINK-33790","OBJECT_ID":"2025-102H","EPOCH":"2025-10-24T18:55:47.007264","MEAN_MOTION":14.98324045,"ECCENTRICITY":0.0002846,"INCLINATION":70.003,"RA_OF_ASC_NODE":97.1836,"ARG_OF_PERICENTER":261.8331,"MEAN_ANOMALY":98.2505,"EPHEMERIS_TYPE":0,"CLASSIFICATION_TYPE":"U","NORAD_CAT_ID":64029,"ELEMENT_SET_NO":999,"REV_AT_EPOCH":2564,"BSTAR":0.00085099,"MEAN_MOTION_DOT":0.00010074,"MEAN_MOTION_DDOT":0},{"OBJECT_NAME":"STARLINK-34030","OBJECT_ID":"2025-102J","EPOCH":"2025-10-24T19:13:35.040000","MEAN_MOTION":14.98335948,"ECCENTRICITY":0.0003115,"INCLINATION":70.0015,"RA_OF_ASC_NODE":97.2309,"ARG_OF_PERICENTER":270.3989,"MEAN_ANOMALY":89.6814,"EPHEMERIS_TYPE":0,"CLASSIFICATION_TYPE":"U","NORAD_CAT_ID":64030,"ELEMENT_SET_NO":999,"REV_AT_EPOCH":2560,"BSTAR":0.00029131,"MEAN_MOTION_DOT":3.385e-5,"MEAN_MOTION_DDOT":0}]
